[{"OBJECT_NAME":"YAOGAN-42 01","OBJECT_ID":"2024-063A","EPOCH":"2026-03-09T23:33:22.802688","MEAN_MOTION":15.23115119,"ECCENTRICITY":0.00025743,"INCLINATION":34.9985,"RA_OF_ASC_NODE":29.746,"ARG_OF_PERICENTER":171.5443,"MEAN_ANOMALY":188.5315,"EPHEMERIS_TYPE":0,"CLASSIFICATION_TYPE":"U","NORAD_CAT_ID":59395,"ELEMENT_SET_NO":999,"REV_AT_EPOCH":10771,"BSTAR":0.00052016126,"MEAN_MOTION_DOT":0.00012558,"MEAN_MOTION_DDOT":0},{"OBJECT_NAME":"OBJECT AA","OBJECT_ID":"2025-313AA","EPOCH":"2026-03-09T22:17:16.257696","MEAN_MOTION":15.21952623,"ECCENTRICITY":0.0014221,"INCLINATION":97.4008,"RA_OF_ASC_NODE":145.2054,"ARG_OF_PERICENTER":358.5401,"MEAN_ANOMALY":1.5791,"EPHEMERIS_TYPE":0,"CLASSIFICATION_TYPE":"U","NORAD_CAT_ID":67272,"ELEMENT_SET_NO":999,"REV_AT_EPOCH":1085,"BSTAR":0.00056563346,"MEAN_MOTION_DOT":0.00012874,"MEAN_MOTION_DDOT":0}]
